CUTE-1.7+APD II (CO-65) 
1 32785U 08021C   26095.90873479  .00006942  00000+0  44575-3 0  9993
2 32785  97.8239  75.8835 0007238 276.0908  83.9495 15.08770328974293
SEEDS II (CO-66)        
1 32791U 08021J   26095.87216490  .00024078  00000+0  82179-3 0  9992
2 32791  97.7531  90.4626 0003094 158.0195 202.1178 15.30325052976221
YUBILEINY (RS30)        
1 32953U 08025A   26095.82909128  .00000057  00000+0  33657-3 0  9996
2 32953  82.5059  40.4392 0020425 107.4168 252.9147 12.43177197810703
KKS-1 (KISEKI)          
1 33499U 09002H   26095.79319314  .00002288  00000+0  28867-3 0  9991
2 33499  98.1186  17.1028 0008295 155.4234 204.7376 14.82937481925462
SWISSCUBE               
1 35932U 09051B   26095.71107845  .00001788  00000+0  36358-3 0  9993
2 35932  98.4077   2.3311 0008088  79.3745 280.8366 14.62339444878565
BEESAT-1                
1 35933U 09051C   26095.68334698  .00001493  00000+0  31020-3 0  9992
2 35933  98.4007   2.0883 0006551  91.1632 269.0319 14.61600352878598
ITUPSAT1                
1 35935U 09051E   26095.26841027  .00001364  00000+0  29225-3 0  9998
2 35935  98.4093   0.9348 0008679 102.1469 258.0703 14.60328443878099
XIWANG-1 (HOPE-1)       
1 36122U 09072B   26095.81671534 -.00000025  00000+0  49733-4 0  9996
2 36122 100.3968  50.8279 0008008  42.3708 317.8022 13.16437487783481
O/OREOS (USA 219)       
1 37224U 10062C   26095.86149524  .00003780  00000+0  36427-3 0  9990
2 37224  71.9710 244.1256 0015673 210.6765 149.3491 14.93450456105848
JUGNU                   
1 37839U 11058B   26095.16955251  .00000570  00000+0  15802-3 0  9991
2 37839  19.9620  32.0253 0018437 350.5168  40.3194 14.13753627748688
SRMSAT                  
1 37841U 11058D   26095.49484994  .00000471  00000+0  11205-3 0  9994
2 37841  19.9707 139.4576 0011902 123.4189  11.6801 14.11557864747539
STRAND-1                
1 39090U 13009E   26095.78755755  .00000495  00000+0  18103-3 0  9998
2 39090  98.3907 277.8080 0009858  88.3552 271.8764 14.37119777686666
ZACUBE-1 (TSHEPISOSAT)  
1 39417U 13066B   26095.87224932  .00005552  00000+0  43502-3 0  9992
2 39417  97.8144  57.8290 0044990 131.8826 228.6250 15.00604028669883
GOMX-1                  
1 39430U 13066Q   26095.79518062  .00003260  00000+0  49600-3 0  9997
2 39430  97.6535 300.8091 0128044 310.4580  48.5518 14.69211885659283
CUBEBUG-2 (LO-74)       
1 39440U 13066AA  26095.77177874  .00005118  00000+0  47957-3 0  9995
2 39440  97.8849  44.5005 0056656 267.6127  91.8605 14.93276645666187
FUNCUBE-1 (AO-73)       
1 39444U 13066AE  26095.64466373  .00011215  00000+0  71111-3 0  9994
2 39444  97.8238  65.6582 0039165  90.6364 269.9352 15.08450938668725
UWE-3                   
1 39446U 13066AG  26095.81287425  .00005712  00000+0  49640-3 0  9991
2 39446  97.8637  51.4630 0049011 199.0390 160.9001 14.96469600666755
